CZ-4B R/B               
1 28059U 03049C   17362.56921227  .00000010  00000-0  14229-4 0  9996
2 28059  98.5382 252.1093 0050514  15.5408  46.3671 14.52513095751893
CZ-2C R/B               
1 28222U 04012C   17361.88932293  .00000738  00000-0  48999-4 0  9996
2 28222  97.5523 315.0528 0046615 240.8254 180.1829 15.09549572749792
SL-16 R/B               
1 28353U 04021B   17361.53086774 -.00000190  00000-0 -74851-4 0  9997
2 28353  71.0018  32.9893 0007875 268.7830  91.2390 14.14206751699497
CZ-2C R/B               
1 28480U 04046B   17361.88960024  .00000006  00000-0  17647-4 0  9996
2 28480  98.1915  85.5777 0142221  13.4298  99.4405 14.25661214681812
ARIANE 5 R/B            
1 28499U 04049H   17361.84680138  .00000045  00000-0  13115-4 0  9999
2 28499  98.0689  85.8811 0091297 310.7768 158.1988 14.79871252702594
CZ-2D R/B               
1 28738U 05024B   17362.53116341  .00000449  00000-0  30304-4 0  9993
2 28738  97.4753  35.3715 0013508  59.9341 300.3227 15.11401819685161
SUZAKU (ASTRO-EII)      
1 28773U 05025A   17362.55320626  .00001144  00000-0  53224-4 0  9997
2 28773  31.3826 115.5668 0004490 139.9933 220.1046 15.16285230686871
ALOS (DAICHI)           
1 28931U 06002A   17362.45645061  .00000173  00000-0  42833-4 0  9996
2 28931  97.8291  19.9415 0002549  74.5115 285.6374 14.62441669635858
H-2A R/B                
1 28932U 06002B   17361.90230137  .00000692  00000-0  70102-4 0  9996
2 28932  98.2179 292.6847 0090476  37.3487   2.9802 14.91591073646577
AKARI (ASTRO-F)         
1 28939U 06005A   17361.85194844  .00003420  00000-0  10357-3 0  9991
2 28939  98.2307 223.9022 0102385 233.7174 125.4575 15.29990789642693
RESURS-DK 1             
1 29228U 06021A   17362.47648872  .00000136  00000-0  17636-4 0  9994
2 29228  69.9360 323.7250 0003342 359.1726   0.9428 15.02266575637272
GENESIS 1               
1 29252U 06029A   17362.43536651  .00000865  00000-0  53163-4 0  9990
2 29252  64.5053  10.9436 0035082 304.4606  55.3203 15.17126367631297
CZ-4B R/B               
1 29507U 06046C   17362.50760596  .00000913  00000-0  76133-4 0  9993
2 29507  97.7817  10.1867 0052118 313.6262  46.0643 15.00199118610170
CZ-2C R/B               
1 31114U 07010B   17362.28402502 -.00000018  00000-0  10866-4 0  9995
2 31114  98.3816 254.5063 0060065  13.1118 347.1604 14.19261847555052
COSMO-SKYMED 1          
1 31598U 07023A   17362.53642842  .00000081  00000-0  16700-4 0  9998
2 31598  97.8872 183.4685 0001609  80.5398 279.6044 14.82151715571238
GENESIS 2               
1 31789U 07028A   17362.17834722  .00000708  00000-0  46503-4 0  9995
2 31789  64.5044  50.4287 0007394 229.8114 130.2361 15.16381542578315
COSMOS 2428             
1 31792U 07029A   17362.47777430  .00000327  00000-0  20306-3 0  9994
2 31792  70.9416   4.3877 0009259 327.0753  32.9790 14.12412641541503
SL-16 R/B               
1 31793U 07029B   17362.22369164  .00000241  00000-0  15085-3 0  9992
2 31793  70.9754 341.5819 0002430 256.2862 188.8109 14.14389905542154
KORONAS-FOTON           
1 33504U 09003A   17362.55740121  .00000140  00000-0  57238-5 0  9996
2 33504  82.4421  39.8112 0020111 154.1556 206.0685 15.15051237490903
TIANGONG 1              
1 37820U 11053A   17362.53146632  .00067744  10137-4  15517-3 0  9995
2 37820  42.7537  76.9256 0018566  31.5855  98.4670 15.96762332358833
H-2A R/B                
1 38341U 12025E   17361.86728851  .00000198  00000-0  30974-4 0  9997
2 38341  98.4238  89.5982 0054666 254.8934 104.6226 14.83689970303516
CUSAT 2 & FALCON 9 R/B  
1 39271U 13055G   17361.89944539  .00005140  00000-0  13055-3 0  9992
2 39271  80.9664 151.8245 0622490 348.1922  10.5202 14.39736529220479
ALOS-2                  
1 39766U 14029A   17362.49180428  .00000192  00000-0  32533-4 0  9994
2 39766  97.9215  97.0373 0001510  82.9093 277.2294 14.79473212194336
SL-27 R/B               
1 40354U 14084B   17361.94684599  .00001214  00000-0  32238-4 0  9995
2 40354  74.7397  93.1989 0039088  15.6797 344.5614 15.38739054169252
ASTRO-H (HITOMI)        
1 41337U 16012A   17362.18084637  .00000309  00000-0  18279-4 0  9997
2 41337  31.0069 329.4233 0012457 156.9457 203.1739 14.98413983102043
TIANGONG-2              
1 41765U 16057A   17362.24711050  .00005634  00000-0  72398-4 0  9992
2 41765  42.7850 281.4616 0002511 174.5550 316.4063 15.59973207 73275
SHENZHOU-11 MODULE      
1 41868U 16061G   17361.78840516  .00010097  00000-0  87287-4 0  9991
2 41868  42.7952 268.5455 0002683 352.1956 106.7510 15.69325003 63321
